[{"OBJECT_NAME":"ONEWEB-0704","OBJECT_ID":"2024-188R","EPOCH":"2025-11-08T02:10:47.404416","MEAN_MOTION":13.10375919,"ECCENTRICITY":0.0002262,"INCLINATION":87.8821,"RA_OF_ASC_NODE":80.2943,"ARG_OF_PERICENTER":77.6538,"MEAN_ANOMALY":282.4843,"EPHEMERIS_TYPE":0,"CLASSIFICATION_TYPE":"U","NORAD_CAT_ID":61609,"ELEMENT_SET_NO":999,"REV_AT_EPOCH":5433,"BSTAR":-0.0015294,"MEAN_MOTION_DOT":-5.21e-6,"MEAN_MOTION_DDOT":0},{"OBJECT_NAME":"ONEWEB-0705","OBJECT_ID":"2024-188S","EPOCH":"2025-11-08T04:07:54.553152","MEAN_MOTION":13.10375069,"ECCENTRICITY":0.0001723,"INCLINATION":87.8801,"RA_OF_ASC_NODE":80.3039,"ARG_OF_PERICENTER":56.3806,"MEAN_ANOMALY":303.7486,"EPHEMERIS_TYPE":0,"CLASSIFICATION_TYPE":"U","NORAD_CAT_ID":61610,"ELEMENT_SET_NO":999,"REV_AT_EPOCH":4651,"BSTAR":-0.0018399,"MEAN_MOTION_DOT":-6.3e-6,"MEAN_MOTION_DDOT":0},{"OBJECT_NAME":"ONEWEB-0706","OBJECT_ID":"2024-188T","EPOCH":"2025-11-08T01:56:27.006432","MEAN_MOTION":13.1037282,"ECCENTRICITY":0.0001844,"INCLINATION":87.8785,"RA_OF_ASC_NODE":80.3453,"ARG_OF_PERICENTER":78.4158,"MEAN_ANOMALY":281.7176,"EPHEMERIS_TYPE":0,"CLASSIFICATION_TYPE":"U","NORAD_CAT_ID":61611,"ELEMENT_SET_NO":999,"REV_AT_EPOCH":5442,"BSTAR":-0.0020731,"MEAN_MOTION_DOT":-7.11e-6,"MEAN_MOTION_DDOT":0},{"OBJECT_NAME":"ONEWEB-0707","OBJECT_ID":"2024-188U","EPOCH":"2025-11-07T20:36:09.196992","MEAN_MOTION":13.10375577,"ECCENTRICITY":0.0001899,"INCLINATION":87.8805,"RA_OF_ASC_NODE":80.3628,"ARG_OF_PERICENTER":81.3878,"MEAN_ANOMALY":278.7464,"EPHEMERIS_TYPE":0,"CLASSIFICATION_TYPE":"U","NORAD_CAT_ID":61612,"ELEMENT_SET_NO":999,"REV_AT_EPOCH":5433,"BSTAR":-0.0012661,"MEAN_MOTION_DOT":-4.29e-6,"MEAN_MOTION_DDOT":0},{"OBJECT_NAME":"ONEWEB-0708","OBJECT_ID":"2024-188V","EPOCH":"2025-11-08T02:32:19.923360","MEAN_MOTION":13.10373724,"ECCENTRICITY":0.000113,"INCLINATION":87.879,"RA_OF_ASC_NODE":80.3531,"ARG_OF_PERICENTER":80.3073,"MEAN_ANOMALY":279.8182,"EPHEMERIS_TYPE":0,"CLASSIFICATION_TYPE":"U","NORAD_CAT_ID":61613,"ELEMENT_SET_NO":999,"REV_AT_EPOCH":5434,"BSTAR":0.00051244,"MEAN_MOTION_DOT":1.92e-6,"MEAN_MOTION_DDOT":0}]
